ASTRA 1KR               
1 29055U 06012A   26066.01320838  .00000116  00000+0  00000+0 0  9991
2 29055   0.2102  81.8805 0003362 254.8070 211.7676  1.00270705 44671
GALAXY 16 (G-16)        
1 29236U 06023A   26066.12961598 -.00000129  00000+0  00000+0 0  9995
2 29236   0.0370 226.6602 0002677 126.5464 119.2793  1.00273172 71955
EUTELSAT 33F            
1 29270U 06032A   26066.07802911  .00000153  00000+0  00000+0 0  9996
2 29270   1.3976  83.4428 0003514 264.7712 237.7397  1.00270704 46288
JCSAT-3A                
1 29272U 06033A   26066.03478848 -.00000347  00000+0  00000+0 0  9999
2 29272   0.0261 262.7488 0002073  84.3807 318.1370  1.00271448 46710
SYRACUSE 3B             
1 29273U 06033B   26065.91225401  .00000019  00000+0  00000+0 0  9996
2 29273   2.6359  81.3623 0004059 267.1311 147.8536  1.00271493 71652
KOREASAT 5 (MUGUNGWHA 5)
1 29349U 06034A   26066.03184181 -.00000360  00000+0  00000+0 0  9994
2 29349   1.5207  84.3264 0001944 299.8083 265.1207  1.00273020 40291
ZHONGXING-22A           
1 29398U 06038A   26065.98590826  .00000009  00000+0  00000+0 0  9991
2 29398  11.3098  38.1952 0001150 260.2232 102.5085  1.00070165 71365
DIRECTV 9S              
1 29494U 06043A   26066.12961598 -.00000115  00000+0  00000+0 0  9998
2 29494   2.1571  82.1669 0003183 274.4695 113.6563  1.00272457 50367
OPTUS D1                
1 29495U 06043B   26065.96822818 -.00000186  00000+0  00000+0 0  9999
2 29495   2.7713  80.9353 0003907 270.5238 313.7602  1.00272290 71097
BADR-4                  
1 29526U 06051A   26066.01468171  .00000143  00000+0  00000+0 0  9990
2 29526   1.7411  82.2650 0007443 266.4341 207.5376  1.00273534 50243
WILDBLUE-1              
1 29643U 06054A   26065.96863140 -.00000052  00000+0  00000+0 0  9991
2 29643   2.5391  81.7986 0001732 279.7282  40.6692  1.00273420 52761
MEASAT-3                
1 29648U 06056A   26066.16294838 -.00000078  00000+0  00000+0 0  9991
2 29648   4.4664  77.4298 0005883 229.7043  92.5731  0.99754080 49364
SKYNET 5A               
1 30794U 07007B   26066.02828844 -.00000273  00000+0  00000+0 0  9994
2 30794   5.0409  74.9797 0003891 281.4405 273.7013  1.00271444 69675
ANIK F3                 
1 31102U 07009A   26066.14072602 -.00000003  00000+0  00000+0 0  9997
2 31102   0.9335  85.1740 0002776 259.5024 112.1262  1.00271108 45546
ASTRA 1L                
1 31306U 07016A   26066.12303693 -.00000186  00000+0  00000+0 0  9998
2 31306   1.0575  82.4006 0003415 282.1523 180.1090  1.00271060 43967
GALAXY 17 (G-17)        
1 31307U 07016B   26066.13523558 -.00000208  00000+0  00000+0 0  9999
2 31307   2.7133  81.2046 0003327 271.0116 136.3117  1.00271756 68786
NIGCOMSAT 1             
1 31395U 07018A   26065.88732131 -.00000330  00000+0  00000+0 0  9994
2 31395  11.6996  33.6693 0001865 123.3007  70.5497  1.00235578 69032
