[{"OBJECT_NAME":"ASTRA 1KR","OBJECT_ID":"2006-012A","EPOCH":"2026-03-07T00:19:01.204032","MEAN_MOTION":1.00270705,"ECCENTRICITY":0.0003362,"INCLINATION":0.2102,"RA_OF_ASC_NODE":81.8805,"ARG_OF_PERICENTER":254.807,"MEAN_ANOMALY":211.7676,"EPHEMERIS_TYPE":0,"CLASSIFICATION_TYPE":"U","NORAD_CAT_ID":29055,"ELEMENT_SET_NO":999,"REV_AT_EPOCH":4467,"BSTAR":0,"MEAN_MOTION_DOT":1.16e-6,"MEAN_MOTION_DDOT":0},{"OBJECT_NAME":"GALAXY 16 (G-16)","OBJECT_ID":"2006-023A","EPOCH":"2026-03-07T03:06:38.820672","MEAN_MOTION":1.00273172,"ECCENTRICITY":0.0002677,"INCLINATION":0.037,"RA_OF_ASC_NODE":226.6602,"ARG_OF_PERICENTER":126.5464,"MEAN_ANOMALY":119.2793,"EPHEMERIS_TYPE":0,"CLASSIFICATION_TYPE":"U","NORAD_CAT_ID":29236,"ELEMENT_SET_NO":999,"REV_AT_EPOCH":7195,"BSTAR":0,"MEAN_MOTION_DOT":-1.29e-6,"MEAN_MOTION_DDOT":0},{"OBJECT_NAME":"EUTELSAT 33F","OBJECT_ID":"2006-032A","EPOCH":"2026-03-07T01:52:21.715104","MEAN_MOTION":1.00270704,"ECCENTRICITY":0.0003514,"INCLINATION":1.3976,"RA_OF_ASC_NODE":83.4428,"ARG_OF_PERICENTER":264.7712,"MEAN_ANOMALY":237.7397,"EPHEMERIS_TYPE":0,"CLASSIFICATION_TYPE":"U","NORAD_CAT_ID":29270,"ELEMENT_SET_NO":999,"REV_AT_EPOCH":4628,"BSTAR":0,"MEAN_MOTION_DOT":1.53e-6,"MEAN_MOTION_DDOT":0},{"OBJECT_NAME":"JCSAT-3A","OBJECT_ID":"2006-033A","EPOCH":"2026-03-07T00:50:05.724672","MEAN_MOTION":1.00271448,"ECCENTRICITY":0.0002073,"INCLINATION":0.0261,"RA_OF_ASC_NODE":262.7488,"ARG_OF_PERICENTER":84.3807,"MEAN_ANOMALY":318.137,"EPHEMERIS_TYPE":0,"CLASSIFICATION_TYPE":"U","NORAD_CAT_ID":29272,"ELEMENT_SET_NO":999,"REV_AT_EPOCH":4671,"BSTAR":0,"MEAN_MOTION_DOT":-3.47e-6,"MEAN_MOTION_DDOT":0},{"OBJECT_NAME":"SYRACUSE 3B","OBJECT_ID":"2006-033B","EPOCH":"2026-03-06T21:53:38.746464","MEAN_MOTION":1.00271493,"ECCENTRICITY":0.0004059,"INCLINATION":2.6359,"RA_OF_ASC_NODE":81.3623,"ARG_OF_PERICENTER":267.1311,"MEAN_ANOMALY":147.8536,"EPHEMERIS_TYPE":0,"CLASSIFICATION_TYPE":"U","NORAD_CAT_ID":29273,"ELEMENT_SET_NO":999,"REV_AT_EPOCH":7165,"BSTAR":0,"MEAN_MOTION_DOT":1.9e-7,"MEAN_MOTION_DDOT":0},{"OBJECT_NAME":"KOREASAT 5 (MUGUNGWHA 5)","OBJECT_ID":"2006-034A","EPOCH":"2026-03-07T00:45:51.132384","MEAN_MOTION":1.0027302,"ECCENTRICITY":0.0001944,"INCLINATION":1.5207,"RA_OF_ASC_NODE":84.3264,"ARG_OF_PERICENTER":299.8083,"MEAN_ANOMALY":265.1207,"EPHEMERIS_TYPE":0,"CLASSIFICATION_TYPE":"U","NORAD_CAT_ID":29349,"ELEMENT_SET_NO":999,"REV_AT_EPOCH":4029,"BSTAR":0,"MEAN_MOTION_DOT":-3.6e-6,"MEAN_MOTION_DDOT":0},{"OBJECT_NAME":"ZHONGXING-22A","OBJECT_ID":"2006-038A","EPOCH":"2026-03-06T23:39:42.473664","MEAN_MOTION":1.00070165,"ECCENTRICITY":0.000115,"INCLINATION":11.3098,"RA_OF_ASC_NODE":38.1952,"ARG_OF_PERICENTER":260.2232,"MEAN_ANOMALY":102.5085,"EPHEMERIS_TYPE":0,"CLASSIFICATION_TYPE":"U","NORAD_CAT_ID":29398,"ELEMENT_SET_NO":999,"REV_AT_EPOCH":7136,"BSTAR":0,"MEAN_MOTION_DOT":9.0e-8,"MEAN_MOTION_DDOT":0},{"OBJECT_NAME":"DIRECTV 9S","OBJECT_ID":"2006-043A","EPOCH":"2026-03-07T03:06:38.820672","MEAN_MOTION":1.00272457,"ECCENTRICITY":0.0003183,"INCLINATION":2.1571,"RA_OF_ASC_NODE":82.1669,"ARG_OF_PERICENTER":274.4695,"MEAN_ANOMALY":113.6563,"EPHEMERIS_TYPE":0,"CLASSIFICATION_TYPE":"U","NORAD_CAT_ID":29494,"ELEMENT_SET_NO":999,"REV_AT_EPOCH":5036,"BSTAR":0,"MEAN_MOTION_DOT":-1.15e-6,"MEAN_MOTION_DDOT":0},{"OBJECT_NAME":"OPTUS D1","OBJECT_ID":"2006-043B","EPOCH":"2026-03-06T23:14:14.914752","MEAN_MOTION":1.0027229,"ECCENTRICITY":0.0003907,"INCLINATION":2.7713,"RA_OF_ASC_NODE":80.9353,"ARG_OF_PERICENTER":270.5238,"MEAN_ANOMALY":313.7602,"EPHEMERIS_TYPE":0,"CLASSIFICATION_TYPE":"U","NORAD_CAT_ID":29495,"ELEMENT_SET_NO":999,"REV_AT_EPOCH":7109,"BSTAR":0,"MEAN_MOTION_DOT":-1.86e-6,"MEAN_MOTION_DDOT":0},{"OBJECT_NAME":"BADR-4","OBJECT_ID":"2006-051A","EPOCH":"2026-03-07T00:21:08.499744","MEAN_MOTION":1.00273534,"ECCENTRICITY":0.0007443,"INCLINATION":1.7411,"RA_OF_ASC_NODE":82.265,"ARG_OF_PERICENTER":266.4341,"MEAN_ANOMALY":207.5376,"EPHEMERIS_TYPE":0,"CLASSIFICATION_TYPE":"U","NORAD_CAT_ID":29526,"ELEMENT_SET_NO":999,"REV_AT_EPOCH":5024,"BSTAR":0,"MEAN_MOTION_DOT":1.43e-6,"MEAN_MOTION_DDOT":0},{"OBJECT_NAME":"WILDBLUE-1","OBJECT_ID":"2006-054A","EPOCH":"2026-03-06T23:14:49.752960","MEAN_MOTION":1.0027342,"ECCENTRICITY":0.0001732,"INCLINATION":2.5391,"RA_OF_ASC_NODE":81.7986,"ARG_OF_PERICENTER":279.7282,"MEAN_ANOMALY":40.6692,"EPHEMERIS_TYPE":0,"CLASSIFICATION_TYPE":"U","NORAD_CAT_ID":29643,"ELEMENT_SET_NO":999,"REV_AT_EPOCH":5276,"BSTAR":0,"MEAN_MOTION_DOT":-5.2e-7,"MEAN_MOTION_DDOT":0},{"OBJECT_NAME":"MEASAT-3","OBJECT_ID":"2006-056A","EPOCH":"2026-03-07T03:54:38.740032","MEAN_MOTION":0.9975408,"ECCENTRICITY":0.0005883,"INCLINATION":4.4664,"RA_OF_ASC_NODE":77.4298,"ARG_OF_PERICENTER":229.7043,"MEAN_ANOMALY":92.5731,"EPHEMERIS_TYPE":0,"CLASSIFICATION_TYPE":"U","NORAD_CAT_ID":29648,"ELEMENT_SET_NO":999,"REV_AT_EPOCH":4936,"BSTAR":0,"MEAN_MOTION_DOT":-7.8e-7,"MEAN_MOTION_DDOT":0},{"OBJECT_NAME":"SKYNET 5A","OBJECT_ID":"2007-007B","EPOCH":"2026-03-07T00:40:44.121216","MEAN_MOTION":1.00271444,"ECCENTRICITY":0.0003891,"INCLINATION":5.0409,"RA_OF_ASC_NODE":74.9797,"ARG_OF_PERICENTER":281.4405,"MEAN_ANOMALY":273.7013,"EPHEMERIS_TYPE":0,"CLASSIFICATION_TYPE":"U","NORAD_CAT_ID":30794,"ELEMENT_SET_NO":999,"REV_AT_EPOCH":6967,"BSTAR":0,"MEAN_MOTION_DOT":-2.73e-6,"MEAN_MOTION_DDOT":0},{"OBJECT_NAME":"ANIK F3","OBJECT_ID":"2007-009A","EPOCH":"2026-03-07T03:22:38.728128","MEAN_MOTION":1.00271108,"ECCENTRICITY":0.0002776,"INCLINATION":0.9335,"RA_OF_ASC_NODE":85.174,"ARG_OF_PERICENTER":259.5024,"MEAN_ANOMALY":112.1262,"EPHEMERIS_TYPE":0,"CLASSIFICATION_TYPE":"U","NORAD_CAT_ID":31102,"ELEMENT_SET_NO":999,"REV_AT_EPOCH":4554,"BSTAR":0,"MEAN_MOTION_DOT":-3.0e-8,"MEAN_MOTION_DDOT":0},{"OBJECT_NAME":"ASTRA 1L","OBJECT_ID":"2007-016A","EPOCH":"2026-03-07T02:57:10.390752","MEAN_MOTION":1.0027106,"ECCENTRICITY":0.0003415,"INCLINATION":1.0575,"RA_OF_ASC_NODE":82.4006,"ARG_OF_PERICENTER":282.1523,"MEAN_ANOMALY":180.109,"EPHEMERIS_TYPE":0,"CLASSIFICATION_TYPE":"U","NORAD_CAT_ID":31306,"ELEMENT_SET_NO":999,"REV_AT_EPOCH":4396,"BSTAR":0,"MEAN_MOTION_DOT":-1.86e-6,"MEAN_MOTION_DDOT":0},{"OBJECT_NAME":"GALAXY 17 (G-17)","OBJECT_ID":"2007-016B","EPOCH":"2026-03-07T03:14:44.354112","MEAN_MOTION":1.00271756,"ECCENTRICITY":0.0003327,"INCLINATION":2.7133,"RA_OF_ASC_NODE":81.2046,"ARG_OF_PERICENTER":271.0116,"MEAN_ANOMALY":136.3117,"EPHEMERIS_TYPE":0,"CLASSIFICATION_TYPE":"U","NORAD_CAT_ID":31307,"ELEMENT_SET_NO":999,"REV_AT_EPOCH":6878,"BSTAR":0,"MEAN_MOTION_DOT":-2.08e-6,"MEAN_MOTION_DDOT":0},{"OBJECT_NAME":"NIGCOMSAT 1","OBJECT_ID":"2007-018A","EPOCH":"2026-03-06T21:17:44.561184","MEAN_MOTION":1.00235578,"ECCENTRICITY":0.0001865,"INCLINATION":11.6996,"RA_OF_ASC_NODE":33.6693,"ARG_OF_PERICENTER":123.3007,"MEAN_ANOMALY":70.5497,"EPHEMERIS_TYPE":0,"CLASSIFICATION_TYPE":"U","NORAD_CAT_ID":31395,"ELEMENT_SET_NO":999,"REV_AT_EPOCH":6903,"BSTAR":0,"MEAN_MOTION_DOT":-3.3e-6,"MEAN_MOTION_DDOT":0}]
